{
"type": "FeatureCollection",
"name": "zanjan_boundary",
"crs": { "type": "name", "properties": { "name": "urn:ogc:def:crs:OGC::CRS84" } },
"features": [
{ "type": "Feature", "properties": { "osm_id": "241473", "code": 1204, "fclass": "admin_level4", "name": "استان زنجان" }, "geometry": { "type": "MultiPolygon", "coordinates": [ [ [ [ 47.1799518, 36.791667 ], [ 47.1802322, 36.7913878 ], [ 47.1802322, 36.7911087 ], [ 47.1810651, 36.7902714 ], [ 47.1810651, 36.789443 ], [ 47.1813416, 36.7886056 ], [ 47.2123715, 36.7685925 ], [ 47.2615784, 36.7185076 ], [ 47.270231, 36.7011117 ], [ 47.2713451, 36.7008326 ], [ 47.2778646, 36.6815396 ], [ 47.2784216, 36.6812603 ], [ 47.2786983, 36.6809813 ], [ 47.2920314, 36.6693083 ], [ 47.3212543, 36.6457958 ], [ 47.3229208, 36.6435716 ], [ 47.3232004, 36.6427341 ], [ 47.3434775, 36.614683 ], [ 47.3702399, 36.5726373 ], [ 47.3771661, 36.5598429 ], [ 47.3943322, 36.5504662 ], [ 47.4142449, 36.5361232 ], [ 47.4533646, 36.5288049 ], [ 47.456978, 36.5226991 ], [ 47.4578115, 36.5204746 ], [ 47.4583646, 36.5188085 ], [ 47.4586444, 36.5179709 ], [ 47.458921, 36.5165842 ], [ 47.4597546, 36.5127026 ], [ 47.4603116, 36.5110365 ], [ 47.4597546, 36.507146 ], [ 47.4586445, 36.5046423 ], [ 47.4586445, 36.5043631 ], [ 47.4578116, 36.5024179 ], [ 47.3950188, 36.473203 ], [ 47.3751061, 36.455532 ], [ 47.3696133, 36.43178 ], [ 47.3881527, 36.4171387 ], [ 47.4293515, 36.3958624 ], [ 47.4640271, 36.4008366 ], [ 47.4840119, 36.3994962 ], [ 47.4879121, 36.3992346 ], [ 47.4887463, 36.3991786 ], [ 47.4914504, 36.4032449 ], [ 47.4902416, 36.3990154 ], [ 47.5069172, 36.397196 ], [ 47.5071679, 36.3963705 ], [ 47.5183364, 36.3963641 ], [ 47.5116402, 36.4146039 ], [ 47.5479697, 36.4389613 ], [ 47.589144, 36.4305233 ], [ 47.595534, 36.4305233 ], [ 47.5963672, 36.4307935 ], [ 47.5969204, 36.4305233 ], [ 47.6192751, 36.4068722 ], [ 47.6195549, 36.406593 ], [ 47.6203885, 36.4063138 ], [ 47.6209416, 36.4063139 ], [ 47.6212217, 36.4060346 ], [ 47.6374085, 36.3916205 ], [ 47.6385183, 36.3916205 ], [ 47.6393519, 36.3913414 ], [ 47.6404652, 36.3913414 ], [ 47.6410184, 36.3910621 ], [ 47.6596985, 36.3805406 ], [ 47.6655314, 36.3797118 ], [ 47.6699748, 36.3788831 ], [ 47.6710846, 36.3788831 ], [ 47.6741413, 36.3783245 ], [ 47.6758081, 36.3783246 ], [ 47.6769214, 36.3780363 ], [ 47.6935878, 36.3774868 ], [ 47.6944211, 36.3777662 ], [ 47.6991446, 36.3783246 ], [ 47.7002543, 36.3788832 ], [ 47.7069209, 36.3799912 ], [ 47.709421, 36.3799913 ], [ 47.7099776, 36.3802705 ], [ 47.7110877, 36.3802705 ], [ 47.7113675, 36.3802705 ], [ 47.7141441, 36.3802705 ], [ 47.7147007, 36.3802705 ], [ 47.7152543, 36.3799912 ], [ 47.7241444, 36.3799913 ], [ 47.724701, 36.379712 ], [ 47.7255342, 36.379712 ], [ 47.726644, 36.3794328 ], [ 47.7283108, 36.3794328 ], [ 47.7463671, 36.3760997 ], [ 47.748314, 36.3760996 ], [ 47.7488672, 36.3758204 ], [ 47.7505339, 36.3758204 ], [ 47.7513671, 36.3755411 ], [ 47.7524806, 36.3755412 ], [ 47.7533137, 36.3752619 ], [ 47.7599803, 36.3747124 ], [ 47.7644237, 36.3747124 ], [ 47.7652569, 36.3744331 ], [ 47.7666472, 36.3744331 ], [ 47.7674805, 36.3741539 ], [ 47.7685903, 36.3741539 ], [ 47.7710903, 36.3735953 ], [ 47.7822034, 36.3719379 ], [ 47.7877602, 36.3694335 ], [ 47.7919267, 36.3674877 ], [ 47.7963702, 36.3655418 ], [ 47.80026, 36.3627671 ], [ 47.8155366, 36.3472092 ], [ 47.81665, 36.3466597 ], [ 47.8269264, 36.3422094 ], [ 47.8277595, 36.3422094 ], [ 47.8283166, 36.3419301 ], [ 47.8297064, 36.3416599 ], [ 47.8319264, 36.3416599 ], [ 47.8322065, 36.3413806 ], [ 47.8333164, 36.3413806 ], [ 47.833873, 36.3411013 ], [ 47.8352597, 36.3411013 ], [ 47.8355399, 36.340822 ], [ 47.8383165, 36.3408221 ], [ 47.838593, 36.3405427 ], [ 47.8399829, 36.3405428 ], [ 47.8402595, 36.3402635 ], [ 47.8410931, 36.3402635 ], [ 47.8422064, 36.3399842 ], [ 47.8435962, 36.3399842 ], [ 47.8483163, 36.3388762 ], [ 47.866096, 36.3297052 ], [ 47.8669293, 36.3297052 ], [ 47.8674859, 36.3294258 ], [ 47.8708195, 36.3288763 ], [ 47.8741528, 36.3288763 ], [ 47.8747059, 36.3291556 ], [ 47.8758192, 36.3291556 ], [ 47.8835959, 36.3311015 ], [ 47.8849858, 36.3311016 ], [ 47.8849859, 36.3313809 ], [ 47.8863758, 36.3313809 ], [ 47.8874859, 36.3313809 ], [ 47.8885956, 36.3316512 ], [ 47.8908192, 36.3316511 ], [ 47.8916524, 36.3316512 ], [ 47.8927622, 36.3313809 ], [ 47.8933192, 36.3313809 ], [ 47.8980424, 36.3313808 ], [ 47.8985955, 36.3311017 ], [ 47.8994323, 36.3311016 ], [ 47.8997088, 36.3308133 ], [ 47.9185988, 36.3205431 ], [ 47.9194323, 36.3205431 ], [ 47.9197089, 36.3202638 ], [ 47.9202655, 36.3202638 ], [ 47.9341553, 36.3152638 ], [ 47.9347084, 36.3147053 ], [ 47.9385987, 36.31248 ], [ 47.9410984, 36.310543 ], [ 47.9413786, 36.3102638 ], [ 47.956102, 36.2816503 ], [ 47.9563786, 36.2813709 ], [ 47.956102, 36.2755418 ], [ 47.9544317, 36.2735957 ], [ 47.9458221, 36.2685954 ], [ 47.943322, 36.2666493 ], [ 47.9430455, 36.2660997 ], [ 47.9422119, 36.2649825 ], [ 47.9419323, 36.2635951 ], [ 47.9416552, 36.2610994 ], [ 47.9416553, 36.2569279 ], [ 47.9455457, 36.2485939 ], [ 47.9424357, 36.2127732 ], [ 47.9760418, 36.2069315 ], [ 47.9821519, 36.1980384 ], [ 47.9733218, 36.1885955 ], [ 47.9736019, 36.1855409 ], [ 47.9738785, 36.1852616 ], [ 47.9738785, 36.1816485 ], [ 47.9744352, 36.1791525 ], [ 47.9744352, 36.1760979 ], [ 47.9744352, 36.1738723 ], [ 47.9747122, 36.171097 ], [ 47.9749887, 36.169421 ], [ 47.9752688, 36.1683128 ], [ 47.9758255, 36.1666458 ], [ 47.9761021, 36.1663755 ], [ 47.976102, 36.1658168 ], [ 47.9769353, 36.1638705 ], [ 48.0021517, 36.1506567 ], [ 48.0038545, 36.1486416 ], [ 48.0026402, 36.1475508 ], [ 47.9845046, 36.1275459 ], [ 47.9715439, 36.1171465 ], [ 47.9585749, 36.1055342 ], [ 47.9507105, 36.0985882 ], [ 47.9445129, 36.093172 ], [ 47.9409079, 36.0904008 ], [ 47.9318918, 36.082269 ], [ 47.937299, 36.0815716 ], [ 47.9404306, 36.0803553 ], [ 47.9479837, 36.0795229 ], [ 47.956309, 36.0775809 ], [ 47.9640768, 36.0674173 ], [ 47.961116, 36.0606759 ], [ 47.9534911, 36.0483259 ], [ 47.9503546, 36.0453968 ], [ 47.9455727, 36.0405353 ], [ 47.9431341, 36.0389667 ], [ 47.936611, 36.0348024 ], [ 47.9313831, 36.0331749 ], [ 47.9215048, 36.032026 ], [ 47.9146233, 36.0330238 ], [ 47.9072921, 36.0339977 ], [ 47.9013347, 36.0313318 ], [ 47.8885459, 36.0211278 ], [ 47.8826236, 36.015088 ], [ 47.8780669, 36.0069949 ], [ 47.8737635, 36.0015048 ], [ 47.8715943, 35.9981812 ], [ 47.8772163, 35.9966188 ], [ 47.8851985, 35.9948827 ], [ 47.8922366, 35.9953688 ], [ 47.902193, 35.9968965 ], [ 47.9263982, 35.9978261 ], [ 47.9474698, 35.9963685 ], [ 47.9544829, 35.9938686 ], [ 47.9663085, 35.9879381 ], [ 47.9720915, 35.983315 ], [ 47.9736897, 35.9796735 ], [ 47.9719327, 35.9706714 ], [ 47.9620169, 35.9648082 ], [ 47.9574895, 35.963306 ], [ 47.9391566, 35.9574747 ], [ 47.9380464, 35.9574747 ], [ 47.9369331, 35.956925 ], [ 47.9358234, 35.956925 ], [ 47.9352663, 35.9566456 ], [ 47.9344331, 35.9566456 ], [ 47.9341566, 35.9563662 ], [ 47.9316566, 35.9563661 ], [ 47.9310999, 35.9560868 ], [ 47.9274899, 35.9560867 ], [ 47.9266567, 35.9558073 ], [ 47.9258232, 35.9560867 ], [ 47.9249899, 35.9558073 ], [ 47.9213766, 35.955537 ], [ 47.9199902, 35.9555369 ], [ 47.9177667, 35.9549781 ], [ 47.9160999, 35.9549782 ], [ 47.9158203, 35.9546988 ], [ 47.9144334, 35.9546987 ], [ 47.9141534, 35.9544193 ], [ 47.8939034, 35.9483138 ], [ 47.8881283, 35.9453899 ], [ 47.8780035, 35.9420623 ], [ 47.8677327, 35.9391239 ], [ 47.8666387, 35.9322449 ], [ 47.8543852, 35.9282588 ], [ 47.8664121, 35.9127809 ], [ 47.870693, 35.9076837 ], [ 47.8835701, 35.89367 ], [ 47.8892937, 35.887184 ], [ 47.8955133, 35.8796541 ], [ 47.9013347, 35.8830003 ], [ 47.9059304, 35.881636 ], [ 47.913491, 35.8838841 ], [ 47.9300876, 35.8932206 ], [ 47.9422535, 35.9021973 ], [ 47.9507819, 35.9083679 ], [ 47.9740332, 35.9243667 ], [ 47.9881538, 35.9313978 ], [ 47.9943839, 35.9305875 ], [ 48.0021391, 35.9302797 ], [ 48.0065729, 35.9226428 ], [ 48.0101385, 35.9113748 ], [ 48.0139401, 35.8992142 ], [ 48.0173567, 35.8888396 ], [ 48.0226296, 35.8741134 ], [ 48.0246578, 35.8640675 ], [ 48.027939, 35.8489995 ], [ 48.0313825, 35.8387804 ], [ 48.0348974, 35.833974 ], [ 48.0384911, 35.8264395 ], [ 48.0450991, 35.8136412 ], [ 48.0732267, 35.8141399 ], [ 48.0787466, 35.8126628 ], [ 48.0917, 35.8132946 ], [ 48.100518, 35.8062978 ], [ 48.1147119, 35.7988264 ], [ 48.1325648, 35.7887638 ], [ 48.1417255, 35.7821427 ], [ 48.1465344, 35.779117 ], [ 48.1604523, 35.7663192 ], [ 48.1850644, 35.7441817 ], [ 48.1911277, 35.7372279 ], [ 48.2012943, 35.7292838 ], [ 48.2100006, 35.7294262 ], [ 48.220004, 35.7305252 ], [ 48.2280604, 35.7299535 ], [ 48.2350039, 35.7283075 ], [ 48.2415847, 35.725919 ], [ 48.249434, 35.723168 ], [ 48.2524032, 35.7196275 ], [ 48.2704315, 35.707128 ], [ 48.2779578, 35.6990005 ], [ 48.2799138, 35.6969894 ], [ 48.2817249, 35.695222 ], [ 48.2901766, 35.6861535 ], [ 48.2961198, 35.6805276 ], [ 48.311953, 35.6727473 ], [ 48.3280627, 35.6666349 ], [ 48.3433427, 35.6621994 ], [ 48.353066, 35.6596931 ], [ 48.357509, 35.6574753 ], [ 48.3916789, 35.6430234 ], [ 48.3947357, 35.6427529 ], [ 48.3952889, 35.6424734 ], [ 48.4016788, 35.6424734 ], [ 48.4141787, 35.6408055 ], [ 48.4216784, 35.6446913 ], [ 48.4258449, 35.6474681 ], [ 48.435015, 35.6541396 ], [ 48.4380682, 35.6549691 ], [ 48.4391815, 35.6549691 ], [ 48.4414015, 35.6557986 ], [ 48.4422351, 35.6557985 ], [ 48.4425148, 35.656087 ], [ 48.4447347, 35.6560871 ], [ 48.4450148, 35.6557985 ], [ 48.4489047, 35.6557986 ], [ 48.4508482, 35.6555281 ], [ 48.4514048, 35.6552486 ], [ 48.4527916, 35.6552486 ], [ 48.4550147, 35.6546897 ], [ 48.4558482, 35.6546897 ], [ 48.456958, 35.6541397 ], [ 48.4580714, 35.6541397 ], [ 48.4611245, 35.6527513 ], [ 48.4616811, 35.6527513 ], [ 48.4622378, 35.6521924 ], [ 48.4680713, 35.6505245 ], [ 48.4719611, 35.6499746 ], [ 48.4811277, 35.6458094 ], [ 48.4816813, 35.6458093 ], [ 48.4836278, 35.6452504 ], [ 48.4839044, 35.644971 ], [ 48.484181, 35.6446914 ], [ 48.4905709, 35.6374699 ], [ 48.4919613, 35.6355225 ], [ 48.4925179, 35.635252 ], [ 48.4952945, 35.6296893 ], [ 48.4958511, 35.6277509 ], [ 48.4977946, 35.6219177 ], [ 48.4980712, 35.6213587 ], [ 48.4983512, 35.6199703 ], [ 48.495018, 35.5999729 ], [ 48.4961278, 35.598864 ], [ 48.5211275, 35.5902536 ], [ 48.5255742, 35.5883061 ], [ 48.5364072, 35.5855292 ], [ 48.538074, 35.5849702 ], [ 48.5427971, 35.5849702 ], [ 48.5430737, 35.5852497 ], [ 48.5450207, 35.5852497 ], [ 48.5726632, 35.5779816 ], [ 48.5729397, 35.5782611 ], [ 48.5737733, 35.5782611 ], [ 48.5743299, 35.5785406 ], [ 48.5754397, 35.5785406 ], [ 48.6032196, 35.5874314 ], [ 48.6040528, 35.5874315 ], [ 48.6084993, 35.5899291 ], [ 48.6090525, 35.5904882 ], [ 48.6096179, 35.5907677 ], [ 48.6126659, 35.5918768 ], [ 48.6146092, 35.5918768 ], [ 48.6193324, 35.593545 ], [ 48.6318323, 35.595204 ], [ 48.6340558, 35.5949336 ], [ 48.634889, 35.594654 ], [ 48.6433559, 35.6013616 ], [ 48.6441895, 35.6010822 ], [ 48.6472458, 35.6010822 ], [ 48.6480795, 35.6008027 ], [ 48.6505795, 35.6008027 ], [ 48.6639126, 35.5988642 ], [ 48.669469, 35.5971873 ], [ 48.6698229, 35.5972334 ], [ 48.7469617, 35.6471266 ], [ 48.7466851, 35.6476856 ], [ 48.7464051, 35.651581 ], [ 48.7458519, 35.6543583 ], [ 48.7466851, 35.6637992 ], [ 48.7517546, 35.6788427 ], [ 48.7506448, 35.6794017 ], [ 48.7466946, 35.6846935 ], [ 48.7458613, 35.684973 ], [ 48.7455261, 35.6892958 ], [ 48.7460613, 35.6962608 ], [ 48.743506, 35.7141494 ], [ 48.7350278, 35.7224759 ], [ 48.7350277, 35.7227464 ], [ 48.7363237, 35.7239575 ], [ 48.7328047, 35.7299764 ], [ 48.7308612, 35.7335823 ], [ 48.7247478, 35.7494213 ], [ 48.7244712, 35.7513594 ], [ 48.7247478, 35.7569124 ], [ 48.7255814, 35.7602479 ], [ 48.7361379, 35.7783039 ], [ 48.7361378, 35.7788628 ], [ 48.7383609, 35.7821982 ], [ 48.7486411, 35.799695 ], [ 48.7528076, 35.8060861 ], [ 48.7564174, 35.8233031 ], [ 48.7561408, 35.8235915 ], [ 48.756379, 35.8245463 ], [ 48.7564174, 35.8247002 ], [ 48.756694, 35.8249707 ], [ 48.7578073, 35.8260884 ], [ 48.7583608, 35.8263678 ], [ 48.7583608, 35.8266472 ], [ 48.7594741, 35.827756 ], [ 48.7714173, 35.8388611 ], [ 48.771974, 35.8391406 ], [ 48.7747505, 35.8449726 ], [ 48.7803068, 35.8766376 ], [ 48.7816971, 35.8794228 ], [ 48.7844737, 35.8841459 ], [ 48.7872534, 35.8872014 ], [ 48.8275331, 35.9144217 ], [ 48.8450036, 35.9344009 ], [ 48.8563827, 35.9447618 ], [ 48.8676456, 35.9603298 ], [ 48.8864978, 35.9704722 ], [ 48.9008541, 35.9714417 ], [ 48.9115106, 35.957416 ], [ 48.9417549, 35.936653 ], [ 48.9600912, 35.9244323 ], [ 48.9603682, 35.9241529 ], [ 48.9609248, 35.9238735 ], [ 48.9748145, 35.9197097 ], [ 48.978981, 35.9188716 ], [ 48.9809245, 35.9188716 ], [ 48.9825379, 35.9116458 ], [ 48.9839278, 35.9113665 ], [ 48.9867044, 35.9113665 ], [ 48.9919843, 35.9102579 ], [ 49.0078174, 35.9044263 ], [ 49.0307004, 35.881905 ], [ 49.0357005, 35.875243 ], [ 49.0357004, 35.8749545 ], [ 49.0362536, 35.8746841 ], [ 49.0415338, 35.8702397 ], [ 49.0540338, 35.8657954 ], [ 49.0570905, 35.8657954 ], [ 49.0579236, 35.8655161 ], [ 49.0615335, 35.865516 ], [ 49.0623667, 35.8657955 ], [ 49.0645902, 35.8657955 ], [ 49.06598, 35.866066 ], [ 49.0665336, 35.8663543 ], [ 49.0673668, 35.8663544 ], [ 49.07959, 35.872187 ], [ 49.0807034, 35.8732959 ], [ 49.0823698, 35.8741252 ], [ 49.0839388, 35.8760101 ], [ 49.0851465, 35.8774608 ], [ 49.085423, 35.8782902 ], [ 49.0862743, 35.8890786 ], [ 49.0854238, 35.8913505 ], [ 49.085423, 35.8913526 ], [ 49.0978696, 35.9163777 ], [ 49.0970363, 35.916657 ], [ 49.093423, 35.9235965 ], [ 49.093146, 35.9255432 ], [ 49.098146, 35.931374 ], [ 49.1186564, 35.9324755 ], [ 49.1208796, 35.932205 ], [ 49.1217128, 35.9319256 ], [ 49.1230995, 35.9319257 ], [ 49.1233795, 35.9316463 ], [ 49.1244894, 35.9316463 ], [ 49.1247664, 35.9313668 ], [ 49.1314361, 35.9313669 ], [ 49.1353228, 35.9308171 ], [ 49.1358794, 35.9305377 ], [ 49.1375459, 35.9305376 ], [ 49.1378224, 35.9302582 ], [ 49.1406026, 35.9302582 ], [ 49.1411561, 35.9299789 ], [ 49.1464359, 35.9299788 ], [ 49.1475458, 35.9296995 ], [ 49.1506025, 35.9296995 ], [ 49.1517126, 35.9299788 ], [ 49.1517127, 35.9305377 ], [ 49.1525458, 35.9324755 ], [ 49.1636589, 35.9391451 ], [ 49.163659, 35.9394244 ], [ 49.1739357, 35.9516459 ], [ 49.1808823, 35.9555394 ], [ 49.1817156, 35.9555395 ], [ 49.1861585, 35.958036 ], [ 49.2110478, 35.9726679 ], [ 49.2458848, 35.9749799 ], [ 49.2583847, 35.9722041 ], [ 49.2592179, 35.9719247 ], [ 49.2625511, 35.9719247 ], [ 49.3006554, 35.9569164 ], [ 49.3017656, 35.9571959 ], [ 49.3031555, 35.9571959 ], [ 49.3039887, 35.9574753 ], [ 49.3053786, 35.9574753 ], [ 49.3131553, 35.9597019 ], [ 49.3361667, 35.9966461 ], [ 49.3431102, 35.9988722 ], [ 49.3388406, 36.0131753 ], [ 49.3468935, 36.0190057 ], [ 49.3477271, 36.0203934 ], [ 49.3477271, 36.0206728 ], [ 49.3477271, 36.0215108 ], [ 49.3931127, 36.0405444 ], [ 49.3978359, 36.0463661 ], [ 49.4068258, 36.0541541 ], [ 49.4162689, 36.072205 ], [ 49.4196022, 36.0938781 ], [ 49.4193257, 36.0944278 ], [ 49.4184924, 36.1002673 ], [ 49.4165489, 36.1149919 ], [ 49.416549, 36.1211017 ], [ 49.4157157, 36.1235977 ], [ 49.4157156, 36.1238771 ], [ 49.4151591, 36.1263733 ], [ 49.415159, 36.1308158 ], [ 49.4148821, 36.1316539 ], [ 49.4146024, 36.1333209 ], [ 49.4143254, 36.134988 ], [ 49.4168254, 36.1449903 ], [ 49.4246021, 36.1580472 ], [ 49.432382, 36.1716536 ], [ 49.4336719, 36.1930405 ], [ 49.4333917, 36.1941488 ], [ 49.4331153, 36.1944371 ], [ 49.4328386, 36.1955453 ], [ 49.4317253, 36.196933 ], [ 49.4317253, 36.1972123 ], [ 49.4317254, 36.1974916 ], [ 49.4264486, 36.2038709 ], [ 49.4231153, 36.2077634 ], [ 49.4142804, 36.2116728 ], [ 49.4005726, 36.2206729 ], [ 49.4036687, 36.2480471 ], [ 49.4091223, 36.2738951 ], [ 49.4177498, 36.2902789 ], [ 49.4167251, 36.3077621 ], [ 49.4175583, 36.3086 ], [ 49.4154036, 36.3240319 ], [ 49.376897, 36.34579 ], [ 49.3461655, 36.3797152 ], [ 49.3444992, 36.3852644 ], [ 49.3408892, 36.388048 ], [ 49.3369993, 36.3894352 ], [ 49.3065477, 36.394258 ], [ 49.2729622, 36.390203 ], [ 49.2669967, 36.3927682 ], [ 49.26644, 36.3930475 ], [ 49.2356038, 36.3992007 ], [ 49.2015212, 36.4076573 ], [ 49.153171, 36.4197651 ], [ 49.1509475, 36.419765 ], [ 49.1492811, 36.4194858 ], [ 49.1487245, 36.419765 ], [ 49.1473346, 36.4194858 ], [ 49.1440009, 36.4194858 ], [ 49.1426145, 36.419765 ], [ 49.1403911, 36.419765 ], [ 49.138168, 36.4192065 ], [ 49.1205981, 36.4294398 ], [ 49.120045, 36.4294398 ], [ 49.1192117, 36.42971 ], [ 49.109765, 36.4336014 ], [ 49.105875, 36.4366551 ], [ 49.1053216, 36.4369343 ], [ 49.1050414, 36.4374927 ], [ 49.1042083, 36.4377721 ], [ 49.0955983, 36.4463834 ], [ 49.0950416, 36.4474913 ], [ 49.092542, 36.4511034 ], [ 49.0814319, 36.4716585 ], [ 49.0681144, 36.4891203 ], [ 49.0633964, 36.4923186 ], [ 49.0583324, 36.4972176 ], [ 49.0441703, 36.5053589 ], [ 49.0288066, 36.5080495 ], [ 49.0148162, 36.5137753 ], [ 48.9943885, 36.5252257 ], [ 48.977481, 36.5401706 ], [ 48.9717891, 36.5558654 ], [ 48.9812231, 36.5741542 ], [ 48.9896509, 36.5848636 ], [ 49.0033577, 36.6105157 ], [ 49.0036484, 36.6157139 ], [ 49.001095, 36.6210996 ], [ 49.0028716, 36.6235801 ], [ 49.0038339, 36.6267846 ], [ 49.003973, 36.6303089 ], [ 49.0033696, 36.6347619 ], [ 49.0119374, 36.6397611 ], [ 49.0104427, 36.6454112 ], [ 49.0121098, 36.649015 ], [ 49.0122024, 36.6515042 ], [ 49.0089609, 36.6536589 ], [ 49.0079434, 36.6573224 ], [ 49.010489, 36.6623144 ], [ 49.0141472, 36.6670238 ], [ 49.0265026, 36.6732976 ], [ 49.0325217, 36.675142 ], [ 49.0359132, 36.6758816 ], [ 49.0491207, 36.6757847 ], [ 49.0609606, 36.682277 ], [ 49.0706317, 36.6842745 ], [ 49.0716909, 36.688649 ], [ 49.0747826, 36.6904169 ], [ 49.0737272, 36.6962685 ], [ 49.0728278, 36.7012539 ], [ 49.0737758, 36.7054519 ], [ 49.0749411, 36.7095408 ], [ 49.0760992, 36.7123053 ], [ 49.0794553, 36.7176155 ], [ 49.0818379, 36.7201542 ], [ 49.0853884, 36.7234202 ], [ 49.0875042, 36.7265086 ], [ 49.0943518, 36.7386594 ], [ 49.0977787, 36.7444468 ], [ 49.0993761, 36.7480551 ], [ 49.1014726, 36.7506841 ], [ 49.1074016, 36.7616524 ], [ 49.1090241, 36.7631163 ], [ 49.1179787, 36.7711937 ], [ 49.1235109, 36.7745358 ], [ 49.1253571, 36.7770862 ], [ 49.1328093, 36.7795253 ], [ 49.1383159, 36.7791745 ], [ 49.148246, 36.7789104 ], [ 49.1538301, 36.7783325 ], [ 49.157837, 36.7780093 ], [ 49.166473, 36.775486 ], [ 49.1712707, 36.7723737 ], [ 49.1749472, 36.7700707 ], [ 49.1772993, 36.7685972 ], [ 49.1834839, 36.769005 ], [ 49.192995, 36.7714758 ], [ 49.2087653, 36.7790003 ], [ 49.2258041, 36.7829726 ], [ 49.2371898, 36.7891701 ], [ 49.26733, 36.8125833 ], [ 49.2758416, 36.8151799 ], [ 49.2681048, 36.8365409 ], [ 49.2638796, 36.8454154 ], [ 49.2589381, 36.854392 ], [ 49.2499516, 36.8729205 ], [ 49.2443617, 36.8849074 ], [ 49.2393046, 36.902649 ], [ 49.2326744, 36.9130993 ], [ 49.2298946, 36.9167409 ], [ 49.2270998, 36.9200325 ], [ 49.2220402, 36.9263899 ], [ 49.2061682, 36.9455976 ], [ 49.1996944, 36.9594611 ], [ 49.1834031, 36.9914532 ], [ 49.1790761, 37.0020017 ], [ 49.1748046, 37.0116002 ], [ 49.1708095, 37.0212894 ], [ 49.1599379, 37.038942 ], [ 49.1585477, 37.0431084 ], [ 49.1393832, 37.0716808 ], [ 49.1298434, 37.0840608 ], [ 49.1240481, 37.09095 ], [ 49.1078642, 37.1051205 ], [ 49.0908318, 37.1161689 ], [ 49.0715641, 37.121786 ], [ 49.0351731, 37.1304778 ], [ 49.0343394, 37.1313055 ], [ 49.0197518, 37.1334077 ], [ 48.9978216, 37.1371931 ], [ 48.988134, 37.1360832 ], [ 48.9682959, 37.1339087 ], [ 48.9554211, 37.132814 ], [ 48.9394534, 37.1448358 ], [ 48.9319782, 37.1502887 ], [ 48.9314215, 37.1513956 ], [ 48.9308649, 37.1516745 ], [ 48.9261449, 37.1600077 ], [ 48.9247551, 37.1622304 ], [ 48.9228116, 37.1672339 ], [ 48.9182611, 37.1706893 ], [ 48.9176765, 37.1706893 ], [ 48.9167022, 37.1702752 ], [ 48.9162691, 37.1703787 ], [ 48.9147318, 37.1713104 ], [ 48.9151865, 37.1713277 ], [ 48.9160309, 37.1712069 ], [ 48.9163124, 37.1712932 ], [ 48.9164207, 37.1718453 ], [ 48.9159443, 37.171759 ], [ 48.9152081, 37.1723974 ], [ 48.9142987, 37.1723284 ], [ 48.9154463, 37.1729495 ], [ 48.9148184, 37.173191 ], [ 48.9135728, 37.1732827 ], [ 48.9130192, 37.1731801 ], [ 48.9128132, 37.1731801 ], [ 48.9130836, 37.1734776 ], [ 48.9131495, 37.1736115 ], [ 48.912278, 37.1735684 ], [ 48.9112587, 37.1733343 ], [ 48.9108588, 37.1733033 ], [ 48.9105509, 37.1732215 ], [ 48.9101935, 37.1730185 ], [ 48.9098678, 37.173151 ], [ 48.9091565, 37.1732835 ], [ 48.9088379, 37.1732553 ], [ 48.9084062, 37.173402 ], [ 48.90767, 37.1732892 ], [ 48.9074435, 37.1731143 ], [ 48.9070259, 37.1730269 ], [ 48.9062402, 37.172948 ], [ 48.9059995, 37.1728041 ], [ 48.9052209, 37.1727082 ], [ 48.9050085, 37.1725926 ], [ 48.9049484, 37.1724742 ], [ 48.90446, 37.1723755 ], [ 48.9040965, 37.1722961 ], [ 48.90378, 37.1722042 ], [ 48.9035241, 37.1722319 ], [ 48.9035166, 37.1720233 ], [ 48.9033821, 37.1716624 ], [ 48.9032087, 37.1714283 ], [ 48.9029857, 37.1712957 ], [ 48.9027876, 37.1712196 ], [ 48.9026283, 37.1711096 ], [ 48.9025858, 37.170963 ], [ 48.9025858, 37.1706838 ], [ 48.9024655, 37.1704694 ], [ 48.9023862, 37.1704344 ], [ 48.9018143, 37.1701818 ], [ 48.9014851, 37.1700972 ], [ 48.9013011, 37.16999 ], [ 48.9010994, 37.1696967 ], [ 48.9009189, 37.1693696 ], [ 48.9007348, 37.1691298 ], [ 48.9005685, 37.1689634 ], [ 48.9004128, 37.1686758 ], [ 48.9000624, 37.1683486 ], [ 48.8994961, 37.1679002 ], [ 48.8992767, 37.1677902 ], [ 48.8989404, 37.1673503 ], [ 48.8983211, 37.1668877 ], [ 48.8977513, 37.1666649 ], [ 48.8973301, 37.1662729 ], [ 48.8971355, 37.1661516 ], [ 48.8968983, 37.1661037 ], [ 48.8964205, 37.1658329 ], [ 48.8950084, 37.1653112 ], [ 48.8947465, 37.1651983 ], [ 48.8943926, 37.1651758 ], [ 48.8942899, 37.1650799 ], [ 48.8942369, 37.1649417 ], [ 48.8940917, 37.164843 ], [ 48.8933379, 37.1646737 ], [ 48.8930654, 37.1647302 ], [ 48.892531, 37.1649078 ], [ 48.8922691, 37.1648768 ], [ 48.8920567, 37.1646145 ], [ 48.8918762, 37.1642422 ], [ 48.8919045, 37.1640702 ], [ 48.8921417, 37.1638192 ], [ 48.8921593, 37.1635879 ], [ 48.8920886, 37.1632974 ], [ 48.8918691, 37.1630746 ], [ 48.891494, 37.16288 ], [ 48.8912356, 37.1628264 ], [ 48.8907755, 37.1625246 ], [ 48.890641, 37.1622792 ], [ 48.890641, 37.1620394 ], [ 48.8907154, 37.1619012 ], [ 48.890726, 37.1617207 ], [ 48.890595, 37.1615966 ], [ 48.890319, 37.1614612 ], [ 48.889873, 37.1614161 ], [ 48.889643, 37.1615289 ], [ 48.8893917, 37.1616079 ], [ 48.8890519, 37.1616079 ], [ 48.8888821, 37.1615205 ], [ 48.8887016, 37.1613682 ], [ 48.8884927, 37.1613456 ], [ 48.8882839, 37.1611425 ], [ 48.8882592, 37.1608971 ], [ 48.8885104, 37.1604289 ], [ 48.8885918, 37.1602343 ], [ 48.8885812, 37.1599128 ], [ 48.8883936, 37.1596843 ], [ 48.8883547, 37.1594474 ], [ 48.8880149, 37.1590243 ], [ 48.8879371, 37.1585673 ], [ 48.8880008, 37.1582345 ], [ 48.8878238, 37.1579045 ], [ 48.8860259, 37.1579186 ], [ 48.8857003, 37.1577296 ], [ 48.8855411, 37.1573545 ], [ 48.8853216, 37.1571965 ], [ 48.8851428, 37.15701 ], [ 48.8851014, 37.1568011 ], [ 48.8850675, 37.1566365 ], [ 48.8850798, 37.1564659 ], [ 48.8850921, 37.1563468 ], [ 48.8850705, 37.1562019 ], [ 48.8850243, 37.1560497 ], [ 48.8848302, 37.1559355 ], [ 48.8846377, 37.1558864 ], [ 48.8843511, 37.1557796 ], [ 48.8840295, 37.1554796 ], [ 48.8837894, 37.1553112 ], [ 48.883597, 37.1552505 ], [ 48.8833551, 37.1552287 ], [ 48.8830096, 37.1551855 ], [ 48.882942, 37.1551459 ], [ 48.8828366, 37.1550841 ], [ 48.8827241, 37.1550871 ], [ 48.8825073, 37.1550886 ], [ 48.8824193, 37.1550748 ], [ 48.8822606, 37.1550416 ], [ 48.8820942, 37.1550331 ], [ 48.8819941, 37.1550809 ], [ 48.8819202, 37.15513 ], [ 48.8817923, 37.1551681 ], [ 48.881672, 37.1552048 ], [ 48.8815551, 37.1552406 ], [ 48.8812146, 37.1553204 ], [ 48.8809589, 37.15541 ], [ 48.8808541, 37.1554358 ], [ 48.880717, 37.1553989 ], [ 48.880546, 37.1554075 ], [ 48.880489, 37.1555094 ], [ 48.880221, 37.1555696 ], [ 48.8798589, 37.155491 ], [ 48.8790748, 37.1554002 ], [ 48.8784735, 37.1553566 ], [ 48.8782346, 37.1553792 ], [ 48.8780523, 37.1553383 ], [ 48.8775993, 37.1550605 ], [ 48.8773746, 37.1549829 ], [ 48.8771782, 37.1549632 ], [ 48.8770879, 37.1549039 ], [ 48.8770596, 37.1548179 ], [ 48.8770118, 37.1548024 ], [ 48.876849, 37.154784 ], [ 48.876534, 37.1545499 ], [ 48.8763783, 37.1545118 ], [ 48.8762913, 37.154378 ], [ 48.8762238, 37.154271 ], [ 48.8760626, 37.1541287 ], [ 48.8758379, 37.1540213 ], [ 48.875536, 37.1539956 ], [ 48.8751219, 37.1541254 ], [ 48.8747839, 37.1541635 ], [ 48.874322, 37.1541 ], [ 48.8737097, 37.1540323 ], [ 48.8735186, 37.1538715 ], [ 48.8732981, 37.1536535 ], [ 48.8732152, 37.1535506 ], [ 48.8730245, 37.1534657 ], [ 48.8727559, 37.153454 ], [ 48.8726144, 37.1534484 ], [ 48.8724834, 37.1533877 ], [ 48.8723631, 37.1532721 ], [ 48.8721419, 37.1532495 ], [ 48.8719189, 37.1533031 ], [ 48.8709617, 37.1527252 ], [ 48.8705793, 37.1521302 ], [ 48.8698146, 37.1516513 ], [ 48.8691956, 37.1504033 ], [ 48.8685765, 37.1493874 ], [ 48.865372, 37.1475733 ], [ 48.8639188, 37.1475078 ], [ 48.8622525, 37.1475078 ], [ 48.8614189, 37.1475078 ], [ 48.8608622, 37.1475078 ], [ 48.8608623, 37.1477868 ], [ 48.8589193, 37.1477867 ], [ 48.8586392, 37.1480657 ], [ 48.8580856, 37.1477868 ], [ 48.8564192, 37.1477867 ], [ 48.8561391, 37.1480657 ], [ 48.8550288, 37.1480658 ], [ 48.8434979, 37.1518344 ], [ 48.8366314, 37.160864 ], [ 48.8400647, 37.1780994 ], [ 48.8336827, 37.1869766 ], [ 48.8331261, 37.1869766 ], [ 48.8328495, 37.1872554 ], [ 48.8320159, 37.1872553 ], [ 48.8314593, 37.1875342 ], [ 48.8295162, 37.1875342 ], [ 48.8286826, 37.1878131 ], [ 48.8228498, 37.1878131 ], [ 48.8220162, 37.1875342 ], [ 48.8167398, 37.1875342 ], [ 48.8122928, 37.1883618 ], [ 48.8117363, 37.1886406 ], [ 48.8097931, 37.1886405 ], [ 48.8092361, 37.1889195 ], [ 48.8064599, 37.1889195 ], [ 48.8053497, 37.1889195 ], [ 48.8028497, 37.188092 ], [ 48.797836, 37.1802878 ], [ 48.8105389, 37.159496 ], [ 48.8101956, 37.1485507 ], [ 48.8019696, 37.1419551 ], [ 48.7941932, 37.1394533 ], [ 48.7939163, 37.1391744 ], [ 48.7900263, 37.1391743 ], [ 48.7886364, 37.1397323 ], [ 48.7883598, 37.1400113 ], [ 48.7875266, 37.1400113 ], [ 48.7872497, 37.1402902 ], [ 48.7866931, 37.1402902 ], [ 48.7833598, 37.1436199 ], [ 48.7769698, 37.1466797 ], [ 48.7764131, 37.1469497 ], [ 48.7680801, 37.1502884 ], [ 48.7647469, 37.1566778 ], [ 48.7589134, 37.1647319 ], [ 48.7572466, 37.1658387 ], [ 48.7553037, 37.1663967 ], [ 48.7553036, 37.1666756 ], [ 48.7539134, 37.1666756 ], [ 48.7522469, 37.1694563 ], [ 48.7519703, 37.179454 ], [ 48.7519703, 37.1802909 ], [ 48.7519703, 37.1808398 ], [ 48.7516902, 37.1811188 ], [ 48.7511367, 37.1825136 ], [ 48.7511367, 37.1827925 ], [ 48.7461334, 37.1858431 ], [ 48.7450237, 37.185843 ], [ 48.744467, 37.1861221 ], [ 48.7436334, 37.1861221 ], [ 48.7430802, 37.1858431 ], [ 48.7394669, 37.1858431 ], [ 48.7391904, 37.1855641 ], [ 48.7375235, 37.1855641 ], [ 48.7336336, 37.1841783 ], [ 48.7278003, 37.1802908 ], [ 48.726967, 37.1800119 ], [ 48.7262264, 37.1796396 ], [ 48.6958538, 37.1600073 ], [ 48.6947441, 37.1594493 ], [ 48.6801978, 37.145938 ], [ 48.6658128, 37.1343733 ], [ 48.6627641, 37.1320892 ], [ 48.6525098, 37.1267122 ], [ 48.6397556, 37.1248841 ], [ 48.6351956, 37.1239982 ], [ 48.630885, 37.123635 ], [ 48.6230422, 37.121853 ], [ 48.6150598, 37.119914 ], [ 48.6092532, 37.1178706 ], [ 48.5946321, 37.1110506 ], [ 48.5898256, 37.1086207 ], [ 48.5852766, 37.1064645 ], [ 48.5799122, 37.1043254 ], [ 48.5761249, 37.1050014 ], [ 48.57171, 37.1084667 ], [ 48.5708249, 37.1113843 ], [ 48.570621, 37.1145456 ], [ 48.5705191, 37.1165134 ], [ 48.5693872, 37.1189345 ], [ 48.5687005, 37.1204316 ], [ 48.5654497, 37.1212614 ], [ 48.565251, 37.121159 ], [ 48.5597312, 37.1183228 ], [ 48.5561263, 37.1194606 ], [ 48.5497159, 37.1194413 ], [ 48.5475111, 37.1210261 ], [ 48.5469317, 37.1230279 ], [ 48.5476827, 37.1269458 ], [ 48.5476613, 37.1315991 ], [ 48.5451937, 37.1352599 ], [ 48.5380053, 37.1349862 ], [ 48.534497, 37.1351744 ], [ 48.5308814, 37.135756 ], [ 48.528403, 37.1363633 ], [ 48.5251522, 37.1362863 ], [ 48.5216117, 37.1362008 ], [ 48.5182214, 37.135833 ], [ 48.5155177, 37.1360982 ], [ 48.5119343, 37.1369535 ], [ 48.5086298, 37.1387325 ], [ 48.5059905, 37.1404943 ], [ 48.5041451, 37.1436929 ], [ 48.50039, 37.1486188 ], [ 48.4981155, 37.1550237 ], [ 48.4955406, 37.1594444 ], [ 48.4966564, 37.1639931 ], [ 48.4972465, 37.1656261 ], [ 48.4957445, 37.1673617 ], [ 48.4938347, 37.1694478 ], [ 48.4927833, 37.169747 ], [ 48.4914207, 37.1702428 ], [ 48.4911096, 37.1706019 ], [ 48.4912491, 37.1717988 ], [ 48.492279, 37.172893 ], [ 48.4944463, 37.1739702 ], [ 48.4959376, 37.1753807 ], [ 48.4947145, 37.1776717 ], [ 48.4920645, 37.1797917 ], [ 48.4891248, 37.1799969 ], [ 48.487494, 37.1798772 ], [ 48.4850585, 37.1796207 ], [ 48.4830737, 37.1791848 ], [ 48.4803378, 37.1784582 ], [ 48.4790289, 37.1787317 ], [ 48.4782886, 37.1794669 ], [ 48.4808528, 37.1819629 ], [ 48.4850156, 37.1839032 ], [ 48.4868288, 37.1858008 ], [ 48.4869468, 37.1895445 ], [ 48.4872687, 37.1925786 ], [ 48.4891784, 37.1957921 ], [ 48.4887493, 37.198279 ], [ 48.487376, 37.1993729 ], [ 48.4809279, 37.200783 ], [ 48.4792864, 37.2026887 ], [ 48.4784335, 37.2037697 ], [ 48.477425, 37.2045558 ], [ 48.4761482, 37.2053591 ], [ 48.4757405, 37.2062307 ], [ 48.4764004, 37.2071023 ], [ 48.4777576, 37.2071621 ], [ 48.4826875, 37.2084182 ], [ 48.4818774, 37.2100033 ], [ 48.480531, 37.2106313 ], [ 48.4795868, 37.2106997 ], [ 48.4779882, 37.2111397 ], [ 48.4760034, 37.2111824 ], [ 48.4750593, 37.211379 ], [ 48.4720069, 37.2116481 ], [ 48.4694427, 37.2126094 ], [ 48.4680802, 37.2127803 ], [ 48.4649849, 37.2131904 ], [ 48.4638476, 37.212729 ], [ 48.4641051, 37.2113619 ], [ 48.4633755, 37.2097897 ], [ 48.4634507, 37.2086724 ], [ 48.4625199, 37.2081106 ], [ 48.460586, 37.2089865 ], [ 48.4602642, 37.2086959 ], [ 48.457582, 37.210422 ], [ 48.4560478, 37.2104989 ], [ 48.4541595, 37.2099862 ], [ 48.4537679, 37.2082003 ], [ 48.4521854, 37.2076812 ], [ 48.4509301, 37.2082345 ], [ 48.4463811, 37.2104049 ], [ 48.442347, 37.2118575 ], [ 48.4375191, 37.2153265 ], [ 48.4303187, 37.221039 ], [ 48.4265327, 37.2213413 ], [ 48.4214902, 37.222674 ], [ 48.4202456, 37.2242289 ], [ 48.4202456, 37.2286712 ], [ 48.4263825, 37.2378368 ], [ 48.4261894, 37.2396476 ], [ 48.4247196, 37.2409117 ], [ 48.4235608, 37.2408348 ], [ 48.4196448, 37.2410398 ], [ 48.4167695, 37.2425174 ], [ 48.4166729, 37.2446014 ], [ 48.4153533, 37.2466426 ], [ 48.4125638, 37.2483849 ], [ 48.4098709, 37.2479749 ], [ 48.4039378, 37.2461345 ], [ 48.3968782, 37.2492219 ], [ 48.3919859, 37.2489144 ], [ 48.384304, 37.2453616 ], [ 48.3800554, 37.24379 ], [ 48.3789289, 37.244405 ], [ 48.3761716, 37.2471721 ], [ 48.3736181, 37.2483336 ], [ 48.3691871, 37.2486582 ], [ 48.3667731, 37.2476675 ], [ 48.3623207, 37.2468818 ], [ 48.3558726, 37.2480945 ], [ 48.3529973, 37.2461814 ], [ 48.3486414, 37.2422356 ], [ 48.342483, 37.2416719 ], [ 48.3402622, 37.2406725 ], [ 48.3376121, 37.2394768 ], [ 48.3365285, 37.2397458 ], [ 48.3346724, 37.2402028 ], [ 48.332526, 37.2424966 ], [ 48.3314906, 37.2427598 ], [ 48.3226926, 37.2445594 ], [ 48.3172246, 37.2455298 ], [ 48.3137847, 37.2454136 ], [ 48.2947248, 37.2452939 ], [ 48.275835, 37.2375107 ], [ 48.273335, 37.2375107 ], [ 48.2730548, 37.2372317 ], [ 48.2708353, 37.2372318 ], [ 48.2700017, 37.2375107 ], [ 48.2680552, 37.2375107 ], [ 48.2672219, 37.2377896 ], [ 48.265002, 37.2377896 ], [ 48.2644453, 37.2380685 ], [ 48.2616687, 37.2380685 ], [ 48.260835, 37.2377896 ], [ 48.2605554, 37.2380685 ], [ 48.2597217, 37.2377895 ], [ 48.2580553, 37.2377896 ], [ 48.2574987, 37.2375106 ], [ 48.2569451, 37.2377896 ], [ 48.2561119, 37.2375107 ], [ 48.249722, 37.2375106 ], [ 48.2488887, 37.2377895 ], [ 48.2472219, 37.2377896 ], [ 48.2463887, 37.2380685 ], [ 48.2416655, 37.2380684 ], [ 48.2405553, 37.2380685 ], [ 48.2399987, 37.2377895 ], [ 48.2377756, 37.2377896 ], [ 48.236942, 37.2375106 ], [ 48.2358322, 37.2375106 ], [ 48.234999, 37.2372316 ], [ 48.2336087, 37.2372316 ], [ 48.2252757, 37.2350091 ], [ 48.219719, 37.2327866 ], [ 48.2130524, 37.2311219 ], [ 48.2074991, 37.2294572 ], [ 48.2063858, 37.2294573 ], [ 48.2055526, 37.2291783 ], [ 48.2044424, 37.2291784 ], [ 48.202776, 37.2286204 ], [ 48.2013857, 37.2286205 ], [ 48.1913859, 37.2269557 ], [ 48.1872194, 37.2269557 ], [ 48.1863862, 37.2266768 ], [ 48.1858295, 37.2269558 ], [ 48.1849959, 37.2266768 ], [ 48.1774961, 37.2266768 ], [ 48.1763864, 37.2263979 ], [ 48.1736062, 37.2263978 ], [ 48.1730532, 37.2261188 ], [ 48.1658295, 37.2250121 ], [ 48.1644396, 37.2247332 ], [ 48.1613829, 37.2238963 ], [ 48.1602731, 37.2238963 ], [ 48.1594395, 37.2236174 ], [ 48.1502733, 37.2211248 ], [ 48.1402731, 37.2133413 ], [ 48.1319402, 37.2055667 ], [ 48.1313836, 37.2044509 ], [ 48.1169368, 37.1883434 ], [ 48.1163837, 37.1872366 ], [ 48.1094371, 37.1716777 ], [ 48.1058273, 37.1650095 ], [ 48.1055471, 37.1647305 ], [ 48.0997139, 37.1558395 ], [ 48.0966606, 37.1541746 ], [ 48.0955474, 37.1541746 ], [ 48.0955474, 37.1538956 ], [ 48.0947141, 37.1538957 ], [ 48.0941606, 37.1541746 ], [ 48.0933274, 37.1538956 ], [ 48.0899941, 37.1538956 ], [ 48.0894375, 37.1536166 ], [ 48.0836042, 37.1519518 ], [ 48.0824909, 37.1511148 ], [ 48.0811042, 37.1508449 ], [ 48.0644342, 37.1525097 ], [ 48.0561012, 37.1525096 ], [ 48.0555477, 37.1522307 ], [ 48.0536011, 37.1522307 ], [ 48.0530479, 37.1519518 ], [ 48.0519343, 37.1519518 ], [ 48.0508245, 37.1516728 ], [ 48.0494347, 37.1516727 ], [ 48.0472111, 37.1511147 ], [ 48.0449912, 37.1508448 ], [ 48.044158, 37.1505658 ], [ 48.0411012, 37.1494499 ], [ 48.0336014, 37.1452833 ], [ 48.0095666, 37.1400672 ], [ 47.9833218, 37.1477849 ], [ 47.9755419, 37.1533464 ], [ 47.9724852, 37.1552812 ], [ 47.9483186, 37.1652881 ], [ 47.9472089, 37.1652881 ], [ 47.9469288, 37.165567 ], [ 47.9385958, 37.1669528 ], [ 47.9380423, 37.1666739 ], [ 47.9327625, 37.1666739 ], [ 47.9322058, 37.1669529 ], [ 47.9302624, 37.1669529 ], [ 47.9299859, 37.1672318 ], [ 47.9288725, 37.1672318 ], [ 47.9285956, 37.1675107 ], [ 47.9274858, 37.1675108 ], [ 47.9272057, 37.1677898 ], [ 47.9058158, 37.1727841 ], [ 47.9044294, 37.1727841 ], [ 47.9022059, 37.1733419 ], [ 47.9005394, 37.173342 ], [ 47.8980394, 37.1738999 ], [ 47.8960929, 37.1738999 ], [ 47.8949827, 37.1741789 ], [ 47.8922061, 37.1744489 ], [ 47.8891493, 37.1744488 ], [ 47.8880396, 37.1747278 ], [ 47.8788695, 37.1747278 ], [ 47.8769264, 37.1747278 ], [ 47.8719263, 37.1747277 ], [ 47.8713697, 37.1744488 ], [ 47.8641496, 37.1736208 ], [ 47.8608132, 37.1736209 ], [ 47.8605367, 37.1733419 ], [ 47.8591464, 37.1733419 ], [ 47.8588698, 37.1730629 ], [ 47.8569265, 37.173063 ], [ 47.8549799, 37.172514 ], [ 47.8538697, 37.172514 ], [ 47.8524798, 37.171956 ], [ 47.8508135, 37.171956 ], [ 47.8477599, 37.1708402 ], [ 47.8474801, 37.1705612 ], [ 47.8472031, 37.1702822 ], [ 47.8460934, 37.1702822 ], [ 47.8441465, 37.1694544 ], [ 47.8433133, 37.1694543 ], [ 47.8433133, 37.1691754 ], [ 47.8424799, 37.1691754 ], [ 47.8072004, 37.1513932 ], [ 47.805534, 37.1505653 ], [ 47.7935908, 37.1444548 ], [ 47.7933107, 37.1438968 ], [ 47.7927575, 37.1436179 ], [ 47.7788675, 37.1322247 ], [ 47.7785874, 37.1316757 ], [ 47.7783108, 37.1305598 ], [ 47.7780342, 37.1236213 ], [ 47.7785874, 37.1197244 ], [ 47.7777542, 37.1100048 ], [ 47.7758108, 37.0919512 ], [ 47.7755343, 37.0908442 ], [ 47.7730343, 37.0813942 ], [ 47.772201, 37.0802872 ], [ 47.7683112, 37.0772272 ], [ 47.7660877, 37.0763991 ], [ 47.7649779, 37.0763992 ], [ 47.7644212, 37.0761201 ], [ 47.759698, 37.0761201 ], [ 47.7591445, 37.0763991 ], [ 47.7421981, 37.0786131 ], [ 47.7402547, 37.0794501 ], [ 47.737755, 37.0802871 ], [ 47.729418, 37.0841751 ], [ 47.7266414, 37.0869471 ], [ 47.7266414, 37.087505 ], [ 47.7216417, 37.0930581 ], [ 47.7199749, 37.093616 ], [ 47.7177518, 37.093616 ], [ 47.7060851, 37.087784 ], [ 47.705252, 37.0877841 ], [ 47.7049754, 37.0875051 ], [ 47.7038617, 37.0875051 ], [ 47.7033085, 37.087226 ], [ 47.7019187, 37.0872261 ], [ 47.6971951, 37.0863981 ], [ 47.696642, 37.0863981 ], [ 47.6924501, 37.07914 ], [ 47.6913137, 37.0771896 ], [ 47.6909501, 37.0769173 ], [ 47.6899976, 37.076313 ], [ 47.6728854, 37.066302 ], [ 47.6549822, 37.0577032 ], [ 47.6457039, 37.0490355 ], [ 47.6454274, 37.0487563 ], [ 47.6448708, 37.0484772 ], [ 47.6448708, 37.0479279 ], [ 47.6440371, 37.0465325 ], [ 47.6362577, 37.0407871 ], [ 47.6365342, 37.0399498 ], [ 47.6373675, 37.0377349 ], [ 47.6359776, 37.0321709 ], [ 47.6255512, 37.0310382 ], [ 47.6183279, 37.0299309 ], [ 47.6090614, 37.031092 ], [ 47.59886, 37.0375081 ], [ 47.5963563, 37.0375081 ], [ 47.5946899, 37.0402803 ], [ 47.5944133, 37.0419544 ], [ 47.5941364, 37.0430615 ], [ 47.5938566, 37.0444476 ], [ 47.5935797, 37.0447266 ], [ 47.5935796, 37.0452846 ], [ 47.5921898, 37.0477777 ], [ 47.5844135, 37.0527819 ], [ 47.5827466, 37.05334 ], [ 47.5821899, 37.05334 ], [ 47.5821899, 37.053619 ], [ 47.5816369, 37.053619 ], [ 47.5810798, 37.053898 ], [ 47.5793754, 37.0544088 ], [ 47.5755234, 37.0555631 ], [ 47.5696901, 37.0591722 ], [ 47.5677466, 37.0591722 ], [ 47.56719, 37.0588932 ], [ 47.5658001, 37.0588932 ], [ 47.5638567, 37.0580561 ], [ 47.5599668, 37.0572281 ], [ 47.5585769, 37.0572281 ], [ 47.5577433, 37.0575071 ], [ 47.5566335, 37.0575071 ], [ 47.5499669, 37.0608372 ], [ 47.5483001, 37.0608373 ], [ 47.5477436, 37.0605582 ], [ 47.5433004, 37.0605582 ], [ 47.5424672, 37.0602792 ], [ 47.541357, 37.0602792 ], [ 47.5388538, 37.0608372 ], [ 47.5371869, 37.0616742 ], [ 47.5369104, 37.0622322 ], [ 47.5294106, 37.0683344 ], [ 47.5241339, 37.0672274 ], [ 47.5174638, 37.0616742 ], [ 47.5155205, 37.056949 ], [ 47.515244, 37.0555629 ], [ 47.5149639, 37.0508378 ], [ 47.514964, 37.039731 ], [ 47.515244, 37.0366708 ], [ 47.512744, 37.0213966 ], [ 47.5099643, 37.0172292 ], [ 47.4941312, 37.0025036 ], [ 47.4935745, 37.0019455 ], [ 47.4935746, 37.0016665 ], [ 47.4924644, 37.0000012 ], [ 47.4874647, 36.9966709 ], [ 47.486908, 36.9966709 ], [ 47.4585751, 36.98334 ], [ 47.4507948, 36.977228 ], [ 47.4505182, 36.9769489 ], [ 47.4382953, 36.9633387 ], [ 47.4374617, 36.9630597 ], [ 47.4291288, 36.9577757 ], [ 47.4285721, 36.9575056 ], [ 47.4281849, 36.9573415 ], [ 47.4121824, 36.9505563 ], [ 47.4113487, 36.9505563 ], [ 47.4094057, 36.9497282 ], [ 47.4085721, 36.9497281 ], [ 47.4080159, 36.9494491 ], [ 47.4071823, 36.9494491 ], [ 47.4010728, 36.9474957 ], [ 47.3955156, 36.9466675 ], [ 47.3727362, 36.9372245 ], [ 47.3713495, 36.9366664 ], [ 47.3188468, 36.9055551 ], [ 47.3168999, 36.9044478 ], [ 47.3027333, 36.8972278 ], [ 47.3005113, 36.8952734 ], [ 47.2999567, 36.8947162 ], [ 47.2955105, 36.883337 ], [ 47.2910675, 36.8780615 ], [ 47.2693975, 36.8713904 ], [ 47.2577309, 36.8663849 ], [ 47.2568973, 36.8658267 ], [ 47.2432876, 36.8461104 ], [ 47.2410643, 36.839169 ], [ 47.2405079, 36.8383317 ], [ 47.2263413, 36.8275008 ], [ 47.223285, 36.8252771 ], [ 47.2091182, 36.811943 ], [ 47.1982853, 36.7994371 ], [ 47.1907851, 36.7955565 ], [ 47.1880082, 36.7924952 ], [ 47.1868988, 36.7924952 ], [ 47.1852316, 36.7922161 ], [ 47.1846753, 36.7922162 ], [ 47.1843987, 36.7919371 ], [ 47.1799518, 36.791667 ] ] ] ] } }
]
}
